NORAD_CAT_ID,OBJECT_NAME,OBJECT_TYPE,EPOCH,MEAN_MOTION,ECCENTRICITY,INCLINATION,RA_OF_ASC_NODE,ARG_OF_PERICENTER,MEAN_ANOMALY,BSTAR,MEAN_MOTION_DOT,MEAN_MOTION_DDOT,TLE_LINE0,TLE_LINE1,TLE_LINE2,SEMIMAJOR_AXIS,PERIOD,APOGEE,PERIGEE,DECAYED
52865.0,STARLINK-4274,PAYLOAD,2022-08-19 22:00:00,15.49922609,0.0001541999999999,53.2173,92.7327,64.0599,114.6521,-0.00073734,-0.00042131,0.0,0 STARLINK-4274,1 52865U 22062AM  22231.91667824 -.00042131  00000-0 -73734-3 0  9991,2 52865  53.2173  92.7327 0001542  64.0599 114.6521 15.49922609  1305,6795.089,92.908,418.002,415.906,0.0
52865.0,STARLINK-4274,PAYLOAD,2022-08-20 14:00:01,15.49846237,0.000113,53.2175,89.5522,74.7972,225.7673,-0.0089357,-0.00477208,0.0,0 STARLINK-4274,1 52865U 22062AM  22232.58334491 -.00477208  00000-0 -89357-2 0  9990,2 52865  53.2175  89.5522 0001130  74.7972 225.7673 15.49846237 10566,6795.312,92.912,417.945,416.41,0.0
52865.0,STARLINK-4274,PAYLOAD,2022-08-20 22:00:00,15.49602887,0.0001301,53.2177,87.9674,50.4513,310.7715,-0.020846,-0.0106315,0.0,0 STARLINK-4274,1 52865U 22062AM  22232.91667824 -.01063150  00000-0 -20846-1 0  9991,2 52865  53.2177  87.9674 0001301  50.4513 310.7715 15.49602887 10619,6796.024,92.927,418.773,417.005,0.0
52865.0,STARLINK-4274,PAYLOAD,2022-08-21 14:00:01,15.48080263,0.0001373,53.2177,84.7899,59.5392,60.9832,-0.021851,-0.01056661,0.0,0 STARLINK-4274,1 52865U 22062AM  22233.58334491 -.01056661  00000-0 -21851-1 0  9992,2 52865  53.2177  84.7899 0001373  59.5392  60.9832 15.48080263  1304,6800.479,93.018,423.278,421.411,0.0
52865.0,STARLINK-4274,PAYLOAD,2022-08-21 22:00:00,15.47321219,0.0001460999999999,53.2175,83.20700000000002,60.5679,118.2328,-0.022458,-0.01057436,0.0,0 STARLINK-4274,1 52865U 22062AM  22233.91667824 -.01057436  00000-0 -22458-1 0  9993,2 52865  53.2175  83.2070 0001461  60.5679 118.2328 15.47321219 10760,6802.703,93.064,425.562,423.574,0.0
52865.0,STARLINK-4274,PAYLOAD,2022-08-22 12:00:00,15.45992484,0.0001385999999999,53.2173,80.4354,64.8345,123.7608,-0.023554,-0.01058762,0.0,0 STARLINK-4274,1 52865U 22062AM  22234.50001157 -.01058762  00000-0 -23554-1 0  9991,2 52865  53.2173  80.4354 0001386  64.8345 123.7608 15.45992484  1303,6806.6,93.144,429.409,427.522,0.0
52865.0,STARLINK-4274,PAYLOAD,2022-08-22 22:00:00,15.45044142,0.0001268,53.2175,78.4629,57.6263,290.5366,-0.024358,-0.01059521,0.0,0 STARLINK-4274,1 52865U 22062AM  22234.91667824 -.01059521  00000-0 -24358-1 0  9992,2 52865  53.2175  78.4629 0001268  57.6263 290.5366 15.45044142 10926,6809.385,93.201,432.114,430.387,0.0
52865.0,STARLINK-4274,PAYLOAD,2022-08-23 14:00:01,15.43522375,0.0001402,53.2175,75.3071,54.588,41.9223,-0.025523,-0.01054403,0.0,0 STARLINK-4274,1 52865U 22062AM  22235.58334491 -.01054403  00000-0 -25523-1 0  9996,2 52865  53.2175  75.3071 0001402  54.5880  41.9223 15.43522375  1303,6813.86,93.293,436.681,434.77,0.0
52865.0,STARLINK-4274,PAYLOAD,2022-08-23 20:00:01,15.42954856,0.0001364,53.2174,74.1281,51.7194,354.4774,-0.026124,-0.01073068,0.0,0 STARLINK-4274,1 52865U 22062AM  22235.83334491 -.01073068  00000-0 -26124-1 0  9990,2 52865  53.2174  74.1281 0001364  51.7194 354.4774 15.42954856 11065,6815.531,93.327,438.326,436.466,0.0
52865.0,STARLINK-4274,PAYLOAD,2022-08-23 22:00:01,15.42763483,0.0001524,53.2176,73.735,54.5157,94.8611,-0.0262139999999999,-0.01070106,0.0,0 STARLINK-4274,1 52865U 22062AM  22235.91668981 -.01070106  00000-0 -26214-1 0  9993,2 52865  53.2176  73.7350 0001524  54.5157  94.8611 15.42763483  1302,6816.095,93.339,438.99800000000016,436.921,0.0
52865.0,STARLINK-4274,PAYLOAD,2022-08-24 14:00:01,15.41244469,0.0001406,53.2176,70.5904,61.1323,191.0502,-0.027562,-0.01069116,0.0,0 STARLINK-4274,1 52865U 22062AM  22236.58334491 -.01069116  00000-0 -27562-1 0  9999,2 52865  53.2176  70.5904 0001406  61.1323 191.0502 15.41244469  1306,6820.571999999999,93.431,443.396,441.478,0.0
52865.0,STARLINK-4274,PAYLOAD,2022-08-24 22:00:00,15.40485186,0.0001298,53.2177,69.0235,63.5762,238.6709,-0.028294,-0.01069935,0.0,0 STARLINK-4274,1 52865U 22062AM  22236.91667824 -.01069935  00000-0 -28294-1 0  9997,2 52865  53.2177  69.0235 0001298  63.5762 238.6709 15.40485186 11231,6822.813,93.477,445.564,443.793,0.0
52865.0,STARLINK-4274,PAYLOAD,2022-08-25 14:00:01,15.38966005,0.0001353,53.2177,65.8899,51.0585,348.5829,-0.02974,-0.01069455,0.0,0 STARLINK-4274,1 52865U 22062AM  22237.58334491 -.01069455  00000-0 -29740-1 0  9996,2 52865  53.2177  65.8899 0001353  51.0585 348.5829 15.38966005  1300,6827.303000000001,93.569,450.091,448.244,0.0
52865.0,STARLINK-4274,PAYLOAD,2022-08-25 22:00:00,15.38205673,0.0001426999999999,53.2176,64.3282,52.7828,34.1858,-0.030465,-0.01068568,0.0,0 STARLINK-4274,1 52865U 22062AM  22237.91667824 -.01068568  00000-0 -30465-1 0  9992,2 52865  53.2176  64.3282 0001427  52.7828  34.1858 15.38205673 11385,6829.552,93.616,452.392,450.443,0.0
52865.0,STARLINK-4274,PAYLOAD,2022-08-26 14:00:01,15.36685919,0.0001506999999999,53.2179,61.2055,58.1827,120.7682,-0.031949,-0.01066581,0.0,0 STARLINK-4274,1 52865U 22062AM  22238.58335648 -.01066581  00000-0 -31949-1 0  9993,2 52865  53.2179  61.2055 0001507  58.1827 120.7682 15.36685919  1301,6834.054,93.708,456.949,454.89,0.0
52865.0,STARLINK-4274,PAYLOAD,2022-08-26 20:00:01,15.36118147,0.0001425,53.2176,60.0381,63.8227,58.5906,-0.032649,-0.01069774,0.0,0 STARLINK-4274,1 52865U 22062AM  22238.83334491 -.01069774  00000-0 -32649-1 0  9991,2 52865  53.2176  60.0381 0001425  63.8227  58.5906 15.36118147 11529,6835.738,93.743,458.577,456.629,0.0
52865.0,STARLINK-4274,PAYLOAD,2022-08-26 22:00:00,15.35924948,0.0001401,53.2176,59.6493,69.0879,154.3881,-0.032656,-0.01063851,0.0,0 STARLINK-4274,1 52865U 22062AM  22238.91667824 -.01063851  00000-0 -32656-1 0  9997,2 52865  53.2176  59.6493 0001401  69.0879 154.3881 15.35924948  1307,6836.312,93.755,459.134,457.219,0.0
52865.0,STARLINK-4274,PAYLOAD,2022-08-27 14:00:01,15.34408682,0.0001281999999999,53.2177,56.5372,63.5181,246.399,-0.034434,-0.01068,0.0,0 STARLINK-4274,1 52865U 22062AM  22239.58334491 -.01068000  00000-0 -34434-1 0  9999,2 52865  53.2177  56.5372 0001282  63.5181 246.3990 15.34408682  1306,6840.814,93.847,463.556,461.802,0.0
52865.0,STARLINK-4274,PAYLOAD,2022-08-27 22:00:00,15.33647611,0.0001188,53.2175,54.9864,69.5641,282.2043,-0.035194,-0.01065565,0.0,0 STARLINK-4274,1 52865U 22062AM  22239.91667824 -.01065565  00000-0 -35194-1 0  9992,2 52865  53.2175  54.9864 0001188  69.5641 282.2043 15.33647611  1308,6843.0769999999975,93.894,465.755,464.129,0.0
52865.0,STARLINK-4274,PAYLOAD,2022-08-28 14:00:01,15.32130477,0.0001545,53.2175,51.8853,44.7044,28.0295,-0.037051,-0.01068917,0.0,0 STARLINK-4274,1 52865U 22062AM  22240.58334491 -.01068917  00000-0 -37051-1 0  9996,2 52865  53.2175  51.8853 0001545  44.7044  28.0295 15.32130477  1302,6847.594,93.987,470.517,468.401,0.0
52865.0,STARLINK-4274,PAYLOAD,2022-08-28 22:00:00,15.31366339,0.0001355,53.2173,50.3396,63.0974,48.7512,-0.037652,-0.01061097,0.0,0 STARLINK-4274,1 52865U 22062AM  22240.91667824 -.01061097  00000-0 -37652-1 0  9991,2 52865  53.2173  50.3396 0001355  63.0974  48.7512 15.31366339  1309,6849.871999999999,94.034,472.665,470.809,0.0
52865.0,STARLINK-4274,PAYLOAD,2022-08-29 14:00:01,15.29850022,0.0001486,53.2176,47.2495,62.7716,124.566,-0.039645,-0.01065238,0.0,0 STARLINK-4274,1 52865U 22062AM  22241.58334491 -.01065238  00000-0 -39645-1 0  9991,2 52865  53.2176  47.2495 0001486  62.7716 124.5660 15.29850022  1303,6854.397,94.127,477.281,475.244,0.0
52865.0,STARLINK-4274,PAYLOAD,2022-08-29 16:00:00,15.29699701,0.0001255,53.2174,46.8626,75.0117,211.485,-0.041931,-0.01116566,0.0,0 STARLINK-4274,1 52865U 22062AM  22241.66667824 -.01116566  00000-0 -41931-1 0  9991,2 52865  53.2174  46.8626 0001255  75.0117 211.4850 15.29699701 11963,6854.846,94.136,477.572,475.851,0.0
52865.0,STARLINK-4274,PAYLOAD,2022-08-29 22:00:00,15.29087169,0.0001371,53.2173,45.7091,72.9074,150.8061,-0.040339,-0.0105906,0.0,0 STARLINK-4274,1 52865U 22062AM  22241.91667824 -.01059060  00000-0 -40339-1 0  9995,2 52865  53.2173  45.7091 0001371  72.9074 150.8061 15.29087169  1309,6856.677,94.174,479.482,477.602,0.0
52865.0,STARLINK-4274,PAYLOAD,2022-08-30 06:00:00,15.28330088,0.0001357,53.2175,44.1672,65.032,194.1447,-0.041472,-0.01063276,0.0,0 STARLINK-4274,1 52865U 22062AM  22242.25001157 -.01063276  00000-0 -41472-1 0  9997,2 52865  53.2175  44.1672 0001357  65.0320 194.1447 15.28330088 12053,6858.941,94.22,481.737,479.875,0.0
52865.0,STARLINK-4274,PAYLOAD,2022-08-30 14:00:01,15.276134900000002,0.0001343,53.2176,42.6275,71.4511,222.2545,-0.04486,-0.01119765,0.0,0 STARLINK-4274,1 52865U 22062AM  22242.58334491 -.01119765  00000-0 -44860-1 0  9992,2 52865  53.2176  42.6275 0001343  71.4511 222.2545 15.27613490  1302,6861.0859999999975,94.265,483.872,482.029,0.0
52865.0,STARLINK-4274,PAYLOAD,2022-08-30 22:00:00,15.26843377,0.000139,53.2173,41.0931,57.6178,269.7276,-0.045139,-0.01102129,0.0,0 STARLINK-4274,1 52865U 22062AM  22242.91667824 -.01102129  00000-0 -45139-1 0  9994,2 52865  53.2173  41.0931 0001390  57.6178 269.7276 15.26843377  1303,6863.393,94.312,486.212,484.304,0.0
52865.0,STARLINK-4274,PAYLOAD,2022-08-31 14:00:01,15.25293997,0.0001378,53.2176,38.0261,53.2767,338.6241,-0.045635,-0.01066212,0.0,0 STARLINK-4274,1 52865U 22062AM  22243.58334491 -.01066212  00000-0 -45635-1 0  9992,2 52865  53.2176  38.0261 0001378  53.2767 338.6241 15.25293997  1304,6868.04,94.408,490.851,488.958,0.0
52865.0,STARLINK-4274,PAYLOAD,2022-08-31 22:00:00,15.24532376,0.0001274999999999,53.2172,36.4961,62.7421,0.0584,-0.046494,-0.01061963,0.0,0 STARLINK-4274,1 52865U 22062AM  22243.91667824 -.01061963  00000-0 -46494-1 0  9990,2 52865  53.2172  36.4961 0001275  62.7421   0.0584 15.24532376  1303,6870.3269999999975,94.455,493.068,491.316,0.0
